{
  "type": "FeatureCollection",
  "features": [
    {
      "type": "Feature",
      "properties": {
        "norad_id": 30066,
        "name": "FENGYUN 1C DEB",
        "group": "fengyun-1c-debris",
        "lat": 24.451523673040246,
        "lon": 154.71166856900112,
        "alt_km": 876.4530351899048,
        "timestamp": "2025-12-06T03:35:02.144588+00:00",
        "meta_object_name": "FENGYUN 1C DEB",
        "meta_object_id": "1999-025PT",
        "meta_epoch": "2025-12-05T00:05:14.798400",
        "meta_mean_motion": 14.19100176,
        "meta_eccentricity": 0.01167532,
        "meta_inclination": 98.6336,
        "meta_ra_of_asc_node": 329.634,
        "meta_arg_of_pericenter": 284.4056,
        "meta_mean_anomaly": 142.0902,
        "meta_ephemeris_type": 0,
        "meta_classification_type": "U",
        "meta_norad_cat_id": 30066,
        "meta_element_set_no": 999,
        "meta_rev_at_epoch": 97727,
        "meta_bstar": 0.00032305046,
        "meta_mean_motion_dot": 6.79e-06,
        "meta_mean_motion_ddot": 0,
        "tle_line1": "1 30066U 99025PT  25339.00364350  .00000679  00000+0  32305-3 0  9990",
        "tle_line2": "2 30066  98.6336 329.6340 0116753 284.4056 142.0902 14.19100176977271"
      },
      "geometry": {
        "type": "Point",
        "coordinates": [
          154.71166856900112,
          24.451523673040246
        ]
      }
    },
    {
      "type": "Feature",
      "properties": {
        "norad_id": 30067,
        "name": "FENGYUN 1C DEB",
        "group": "fengyun-1c-debris",
        "lat": -36.64883546235596,
        "lon": 39.44219116097789,
        "alt_km": 861.2237497116776,
        "timestamp": "2025-12-06T03:35:02.144600+00:00",
        "meta_object_name": "FENGYUN 1C DEB",
        "meta_object_id": "1999-025PU",
        "meta_epoch": "2025-12-05T07:08:53.857248",
        "meta_mean_motion": 14.43650634,
        "meta_eccentricity": 0.01522265,
        "meta_inclination": 98.7657,
        "meta_ra_of_asc_node": 225.1572,
        "meta_arg_of_pericenter": 40.2547,
        "meta_mean_anomaly": 74.0305,
        "meta_ephemeris_type": 0,
        "meta_classification_type": "U",
        "meta_norad_cat_id": 30067,
        "meta_element_set_no": 999,
        "meta_rev_at_epoch": 99091,
        "meta_bstar": 0.00078473706,
        "meta_mean_motion_dot": 3.014e-05,
        "meta_mean_motion_ddot": 0,
        "tle_line1": "1 30067U 99025PU  25339.29784557  .00003014  00000+0  78474-3 0  9990",
        "tle_line2": "2 30067  98.7657 225.1572 0152226  40.2547  74.0305 14.43650634990917"
      },
      "geometry": {
        "type": "Point",
        "coordinates": [
          39.44219116097789,
          -36.64883546235596
        ]
      }
    },
    {
      "type": "Feature",
      "properties": {
        "norad_id": 30068,
        "name": "FENGYUN 1C DEB",
        "group": "fengyun-1c-debris",
        "lat": 51.037366818506754,
        "lon": 159.083814036698,
        "alt_km": 915.5484075545664,
        "timestamp": "2025-12-06T03:35:02.144611+00:00",
        "meta_object_name": "FENGYUN 1C DEB",
        "meta_object_id": "1999-025PV",
        "meta_epoch": "2025-12-04T05:04:26.232672",
        "meta_mean_motion": 14.12035233,
        "meta_eccentricity": 0.0190453,
        "meta_inclination": 98.736,
        "meta_ra_of_asc_node": 326.2341,
        "meta_arg_of_pericenter": 13.0822,
        "meta_mean_anomaly": 347.5192,
        "meta_ephemeris_type": 0,
        "meta_classification_type": "U",
        "meta_norad_cat_id": 30068,
        "meta_element_set_no": 999,
        "meta_rev_at_epoch": 97223,
        "meta_bstar": 0.00036949,
        "meta_mean_motion_dot": 7.6e-06,
        "meta_mean_motion_ddot": 0,
        "tle_line1": "1 30068U 99025PV  25338.21141473  .00000760  00000+0  36949-3 0  9992",
        "tle_line2": "2 30068  98.7360 326.2341 0190453  13.0822 347.5192 14.12035233972239"
      },
      "geometry": {
        "type": "Point",
        "coordinates": [
          159.083814036698,
          51.037366818506754
        ]
      }
    },
    {
      "type": "Feature",
      "properties": {
        "norad_id": 30069,
        "name": "FENGYUN 1C DEB",
        "group": "fengyun-1c-debris",
        "lat": 9.20221766163186,
        "lon": -39.24535228882433,
        "alt_km": 860.1268685798523,
        "timestamp": "2025-12-06T03:35:02.144621+00:00",
        "meta_object_name": "FENGYUN 1C DEB",
        "meta_object_id": "1999-025PW",
        "meta_epoch": "2025-12-04T22:47:21.155424",
        "meta_mean_motion": 14.05215095,
        "meta_eccentricity": 0.0049979,
        "meta_inclination": 98.8006,
        "meta_ra_of_asc_node": 321.0286,
        "meta_arg_of_pericenter": 74.5858,
        "meta_mean_anomaly": 349.2885,
        "meta_ephemeris_type": 0,
        "meta_classification_type": "U",
        "meta_norad_cat_id": 30069,
        "meta_element_set_no": 999,
        "meta_rev_at_epoch": 96737,
        "meta_bstar": 0.00041723,
        "meta_mean_motion_dot": 6.39e-06,
        "meta_mean_motion_ddot": 0,
        "tle_line1": "1 30069U 99025PW  25338.94955041  .00000639  00000+0  41723-3 0  9998",
        "tle_line2": "2 30069  98.8006 321.0286 0049979  74.5858 349.2885 14.05215095967371"
      },
      "geometry": {
        "type": "Point",
        "coordinates": [
          -39.24535228882433,
          9.20221766163186
        ]
      }
    },
    {
      "type": "Feature",
      "properties": {
        "norad_id": 30070,
        "name": "FENGYUN 1C DEB",
        "group": "fengyun-1c-debris",
        "lat": 52.6305531063313,
        "lon": 29.284972021928674,
        "alt_km": 788.1517885500143,
        "timestamp": "2025-12-06T03:35:02.144632+00:00",
        "meta_object_name": "FENGYUN 1C DEB",
        "meta_object_id": "1999-025PX",
        "meta_epoch": "2025-12-05T03:44:39.378912",
        "meta_mean_motion": 14.09810051,
        "meta_eccentricity": 0.03285872,
        "meta_inclination": 98.2876,
        "meta_ra_of_asc_node": 39.3705,
        "meta_arg_of_pericenter": 340.8586,
        "meta_mean_anomaly": 70.4288,
        "meta_ephemeris_type": 0,
        "meta_classification_type": "U",
        "meta_norad_cat_id": 30070,
        "meta_element_set_no": 999,
        "meta_rev_at_epoch": 95772,
        "meta_bstar": 0.0030892481,
        "meta_mean_motion_dot": 8.945e-05,
        "meta_mean_motion_ddot": 0,
        "tle_line1": "1 30070U 99025PX  25339.15601133  .00008945  00000+0  30892-2 0  9996",
        "tle_line2": "2 30070  98.2876  39.3705 0328587 340.8586  70.4288 14.09810051957724"
      },
      "geometry": {
        "type": "Point",
        "coordinates": [
          29.284972021928674,
          52.6305531063313
        ]
      }
    },
    {
      "type": "Feature",
      "properties": {
        "norad_id": 30071,
        "name": "FENGYUN 1C DEB",
        "group": "fengyun-1c-debris",
        "lat": -8.895854145049148,
        "lon": 80.57607561124449,
        "alt_km": 744.5791879689687,
        "timestamp": "2025-12-06T03:35:02.144642+00:00",
        "meta_object_name": "FENGYUN 1C DEB",
        "meta_object_id": "1999-025PY",
        "meta_epoch": "2025-12-05T06:14:36.826944",
        "meta_mean_motion": 14.5190166,
        "meta_eccentricity": 0.00399959,
        "meta_inclination": 98.6597,
        "meta_ra_of_asc_node": 78.2929,
        "meta_arg_of_pericenter": 132.3189,
        "meta_mean_anomaly": 254.1329,
        "meta_ephemeris_type": 0,
        "meta_classification_type": "U",
        "meta_norad_cat_id": 30071,
        "meta_element_set_no": 999,
        "meta_rev_at_epoch": 98118,
        "meta_bstar": 0.0049461839,
        "meta_mean_motion_dot": 0.00020156,
        "meta_mean_motion_ddot": 0,
        "tle_line1": "1 30071U 99025PY  25339.26014846  .00020156  00000+0  49462-2 0  9999",
        "tle_line2": "2 30071  98.6597  78.2929 0039995 132.3189 254.1329 14.51901660981182"
      },
      "geometry": {
        "type": "Point",
        "coordinates": [
          80.57607561124449,
          -8.895854145049148
        ]
      }
    },
    {
      "type": "Feature",
      "properties": {
        "norad_id": 30072,
        "name": "FENGYUN 1C DEB",
        "group": "fengyun-1c-debris",
        "lat": -64.43636386423447,
        "lon": 147.5738606149834,
        "alt_km": 731.3328793266164,
        "timestamp": "2025-12-06T03:35:02.144653+00:00",
        "meta_object_name": "FENGYUN 1C DEB",
        "meta_object_id": "1999-025PZ",
        "meta_epoch": "2025-12-04T23:29:25.478304",
        "meta_mean_motion": 14.37545258,
        "meta_eccentricity": 0.00592972,
        "meta_inclination": 99.0768,
        "meta_ra_of_asc_node": 126.8148,
        "meta_arg_of_pericenter": 294.8452,
        "meta_mean_anomaly": 64.6575,
        "meta_ephemeris_type": 0,
        "meta_classification_type": "U",
        "meta_norad_cat_id": 30072,
        "meta_element_set_no": 999,
        "meta_rev_at_epoch": 97059,
        "meta_bstar": 0.0061673375,
        "meta_mean_motion_dot": 0.00018866,
        "meta_mean_motion_ddot": 0,
        "tle_line1": "1 30072U 99025PZ  25338.97876711  .00018866  00000+0  61673-2 0  9997",
        "tle_line2": "2 30072  99.0768 126.8148 0059297 294.8452  64.6575 14.37545258970596"
      },
      "geometry": {
        "type": "Point",
        "coordinates": [
          147.5738606149834,
          -64.43636386423447
        ]
      }
    }
  ]
}